GPS BIIR-2  (PRN 13)    
1 24876C 97035A   21185.71090278 -.00000000  00000-0  00000-0 0  1850
2 24876  55.4772 169.2393 0048881  53.2701 205.7615  2.00562643    14
GPS BIIR-4  (PRN 20)    
1 26360C 00025A   21185.71090278 -.00000000  00000-0  00000-0 0  1853
2 26360  53.7841  93.2695 0060533 176.3405 159.0127  2.00788357    10
GPS BIIR-8  (PRN 16)    
1 27663C 03005A   21185.71090278  .00000000  00000-0  00000-0 0  1850
2 27663  55.7597 286.8566 0120276  38.1752 288.1348  2.00558713    15
GPS BIIR-9  (PRN 21)    
1 27704C 03010A   21185.71090278 -.00000000  00000-0  00000-0 0  1853
2 27704  54.8655  37.4153 0242299 295.8127 243.9789  2.00564703    10
GPS BIIR-10 (PRN 22)    
1 28129C 03058A   21185.71090278 -.00000000  00000-0  00000-0 0  1857
2 28129  53.5961  95.9253 0071390 305.7394 177.2583  2.00549309    13
GPS BIIR-11 (PRN 19)    
1 28190C 04009A   21185.71090278  .00000000  00000-0  00000-0 0  1851
2 28190  56.1788 347.7397 0090701 108.1128  15.6312  2.00568347    19
GPS BIIR-13 (PRN 02)    
1 28474C 04045A   21185.71090278 -.00000000  00000-0  00000-0 0  1857
2 28474  55.1995  37.4251 0203930 273.5905 124.6044  2.00560188    13
GPS BIIRM-1 (PRN 17)    
1 28874C 05038A   21185.71090278  .00000000  00000-0  00000-0 0  1853
2 28874  56.2611 345.1552 0135833 270.2860 237.0402  2.00570410    13
GPS BIIRM-2 (PRN 31)    
1 29486C 06042A   21185.71090278  .00000000  00000-0  00000-0 0  1859
2 29486  54.7668 223.1179 0099671  13.9989  45.1948  2.00576699    19
GPS BIIRM-3 (PRN 12)    
1 29601C 06052A   21185.71090278  .00000000  00000-0  00000-0 0  1859
2 29601  55.7561 285.7836 0081139  69.7854  31.4313  2.00559248    10
GPS BIIRM-4 (PRN 15)    
1 32260C 07047A   21185.71090278 -.00000000  00000-0  00000-0 0  1850
2 32260  53.2398 154.9554 0131064  56.4904 184.9489  2.00567020    17
GPS BIIRM-5 (PRN 29)    
1 32384C 07062A   21185.71090278  .00000000  00000-0  00000-0 0  1853
2 32384  56.3689 345.8736 0017730 131.3351 236.5802  2.00571445    15
GPS BIIRM-6 (PRN 07)    
1 32711C 08012A   21185.71090278  .00000000  00000-0  00000-0 0  1853
2 32711  54.5205 222.1320 0153006 227.5791  73.7729  2.00554595    18
GPS BIIRM-8 (PRN 05)    
1 35752C 09043A   21185.71090278 -.00000000  00000-0  00000-0 0  1857
2 35752  54.8189  99.5619 0059944  51.5587 260.9978  2.00536874    17
GPS BIIF-1  (PRN 25)    
1 36585C 10022A   21185.71090278  .00000000  00000-0  00000-0 0  1850
2 36585  55.0316 281.5459 0096559  55.0002  18.5899  2.00571783    13
GPS BIIF-2  (PRN 01)    
1 37753C 11036A   21185.71090278 -.00000000  00000-0  00000-0 0  1855
2 37753  56.4244  42.2722 0108534  48.8872 109.0583  2.00563764    19
GPS BIIF-3  (PRN 24)    
1 38833C 12053A   21185.71090278  .00000000  00000-0  00000-0 0  1854
2 38833  53.5704 217.6097 0110276  41.6896 130.4113  2.00557595    16
GPS BIIF-4  (PRN 27)    
1 39166C 13023A   21185.71090278  .00000000  00000-0  00000-0 0  1852
2 39166  55.9035 341.6622 0093162  35.2090 234.2128  2.00562778    18
GPS BIIF-5  (PRN 30)    
1 39533C 14008A   21185.71090278  .00000000  00000-0  00000-0 0  1854
2 39533  53.6727 223.0821 0054267 204.5782  63.3986  2.00562468    14
GPS BIIF-6  (PRN 06)    
1 39741C 14026A   21185.71090278 -.00000000  00000-0  00000-0 0  1856
2 39741  56.3924  41.7997 0022919 301.1694 123.6257  2.00550564    13
GPS BIIF-7  (PRN 09)    
1 40105C 14045A   21185.71090278 -.00000000  00000-0  00000-0 0  1853
2 40105  54.6326 160.6889 0016745 106.5935 258.5229  2.00554024    14
GPS BIIF-8  (PRN 03)    
1 40294C 14068A   21185.71090278 -.00000000  00000-0  00000-0 0  1857
2 40294  55.5659 101.7021 0034985  47.8569  51.2640  2.00576276    10
GPS BIIF-9  (PRN 26)    
1 40534C 15013A   21185.71090278  .00000000  00000-0  00000-0 0  1854
2 40534  53.9378 279.0950 0058357  15.3087 341.1624  2.00574077    11
GPS BIIF-10 (PRN 08)    
1 40730C 15033A   21185.71090278  .00000000  00000-0  00000-0 0  1854
2 40730  55.4108 340.6560 0063506   1.4112 240.8156  2.00570428    17
GPS BIIF-11 (PRN 10)    
1 41019C 15062A   21185.71090278 -.00000000  00000-0  00000-0 0  1858
2 41019  55.5584 101.5379 0068293 214.3982 352.1002  2.00563815    16
GPS BIIF-12 (PRN 32)    
1 41328C 16007A   21185.71090278 -.00000000  00000-0  00000-0 0  1851
2 41328  54.8592 161.2732 0052115 226.6252 274.4901  2.00561593    13
GPS BIII-1  (PRN 04)    
1 43873C 18109A   21185.71090278 -.00000000  00000-0  00000-0 0  1853
2 43873  55.0406 163.6189 0013518 201.2439 192.8850  2.00557517    16
GPS BIII-2  (PRN 18)    
1 44506C 19056A   21185.71090278 -.00000000  00000-0  00000-0 0  1859
2 44506  55.4916  42.9123 0015729 173.2013 120.2087  2.00566311    18
GPS BIII-3  (PRN 23)    
1 45854C 20041A   21185.71090278 -.00000000  00000-0  00000-0 0  1852
2 45854  55.2719 100.1811 0012536 158.8173  77.2649  2.00565642    15
GPS BIII-4  (PRN 14)    
1 46826C 20078A   21185.71090278  .00000000  00000-0  00000-0 0  1851
2 46826  54.8090 284.1945 0008510 182.0211  23.6750  2.00554661    19
